OBJECT_NAME,OBJECT_ID,EPOCH,MEAN_MOTION,ECCENTRICITY,INCLINATION,RA_OF_ASC_NODE,ARG_OF_PERICENTER,MEAN_ANOMALY,EPHEMERIS_TYPE,CLASSIFICATION_TYPE,NORAD_CAT_ID,ELEMENT_SET_NO,REV_AT_EPOCH,BSTAR,MEAN_MOTION_DOT,MEAN_MOTION_DDOT
SL-14 R/B,1990-018B,2026-06-14T09:05:08.613024,14.82214463,.0017287,82.5209,132.7328,130.3183,229.9545,0,U,20511,999,93690,.39562E-4,.34E-5,0
HST,1990-037B,2026-06-14T03:27:36.730368,15.30716351,.00019122,28.4715,101.3706,110.8714,249.2086,0,U,20580,999,78810,.19998963E-3,.6344E-4,0
SL-16 R/B,1990-046B,2026-06-14T06:17:08.509920,14.15025377,.001358,70.9995,95.0915,166.1440,194.0058,0,U,20625,999,86205,.13711E-3,.218E-5,0
COSMOS 2084,1990-055A,2026-06-13T22:34:58.448064,15.06104058,.000551,62.7910,7.1711,273.5813,86.4657,0,U,20663,999,95081,.15328E-3,.205E-4,0
SL-6 R/B(2),1990-055D,2026-06-14T12:32:49.638336,15.03995320,.0040188,62.7823,284.4431,4.7430,355.4042,0,U,20666,999,95275,.11626E-3,.1434E-4,0
SL-8 R/B,1990-078B,2026-06-14T12:18:39.802752,14.92215711,.0351582,82.9001,164.0607,47.4786,315.5560,0,U,20775,999,82372,.50253E-3,.1785E-3,0
SL-8 R/B,1991-006B,2026-06-14T13:03:01.344384,13.77505643,.0023577,82.9424,98.0001,121.5798,52.1573,0,U,21088,999,77740,.1938E-4,.35E-6,0
OKEAN-3,1991-039A,2026-06-14T11:30:46.744416,15.05312042,.0014312,82.5158,243.0063,8.1840,351.9618,0,U,21397,999,87959,.16313E-3,.2366E-4,0
COSMOS 2151,1991-042A,2026-06-14T12:36:46.681920,15.00431167,.0013832,82.4960,350.2499,91.9793,268.3015,0,U,21422,999,87771,.12558E-3,.1609E-4,0
SL-14 R/B,1991-042B,2026-06-14T09:13:41.626848,14.81900908,.0015483,82.4926,129.5238,285.0312,74.9189,0,U,21423,999,86739,.38685E-4,.33E-5,0
ERS-1,1991-050A,2026-06-14T07:33:36.247104,14.39516404,.0030709,98.7797,185.9427,275.8819,83.8867,0,U,21574,999,82963,.12004E-3,.33E-5,0
ARIANE 40 R/B,1991-050F,2026-06-14T03:16:44.921856,14.42955449,.00041341,98.1877,213.6723,127.8482,232.3084,0,U,21610,999,83290,.90289234E-4,.26E-5,0
INTERCOSMOS 25,1991-086A,2026-06-14T11:17:45.094848,12.12192313,.1484113,82.6052,251.4538,268.2589,74.8557,0,U,21819,999,50841,.11849E-3,.594E-5,0
SL-8 R/B,1992-008B,2026-06-14T12:25:56.395776,13.75976215,.0033668,82.9264,195.7722,222.3439,248.1425,0,U,21876,999,72273,.12864E-3,.14E-5,0
SL-8 R/B,1992-020B,2026-06-14T12:44:13.121088,13.75548536,.0029895,82.9306,81.8304,29.8317,142.7422,0,U,21938,999,71444,.38908E-4,.53E-6,0
USA 81,1992-023A,2026-06-14T11:32:03.789024,14.32397510,.0002771,85.0076,75.5695,87.0583,273.0927,0,U,21949,999,10864,.47333E-4,.148E-5,0
COSMOS 2219,1992-076A,2026-06-14T10:21:52.188192,14.14097365,.0016471,71.0577,175.8320,48.6580,311.5956,0,U,22219,999,73205,.13249E-3,.206E-5,0
SL-16 R/B,1992-076B,2026-06-14T11:44:33.789408,14.16871368,.0014612,71.0004,344.4647,302.1791,123.7918,0,U,22220,999,73554,.51477E-4,.55E-6,0
COSMOS 2221,1992-080A,2026-06-14T11:08:51.975744,14.96527050,.001307,82.5031,186.3732,222.0334,137.9887,0,U,22236,999,79526,.11039E-3,.1282E-4,0
SL-16 R/B,1992-093B,2026-06-14T09:58:33.178656,14.15462539,.000412,71.0199,161.2098,193.0991,167.0025,0,U,22285,999,72684,-.12755E-3,-.297E-5,0
COSMOS 2228,1992-094A,2026-06-14T11:33:52.988256,14.97577692,.0017145,82.5174,144.6340,341.7671,18.2935,0,U,22286,999,79054,.15775E-3,.1873E-4,0
SL-16 R/B,1993-016B,2026-06-14T07:47:40.945344,14.15312430,.0010411,71.0083,12.2197,187.4886,172.6083,0,U,22566,999,71584,.19472E-3,.332E-5,0
COSMOS 2242,1993-024A,2026-06-14T12:09:57.957984,14.96896141,.0015603,82.5180,174.1072,345.6731,14.4047,0,U,22626,999,79487,.1317E-3,.154E-4,0
SL-16 R/B,1993-059B,2026-06-14T10:55:08.590656,14.17247836,.0015137,70.9887,167.0655,58.6811,301.5792,0,U,22803,999,69324,.87044E-4,.128E-5,0
ARIANE 40 R/B,1993-061H,2026-06-14T09:53:40.098624,14.32906827,.0010642,98.4819,232.3269,4.6746,355.4535,0,U,22830,999,70795,.75493E-4,.163E-5,0
COSMOS 2278,1994-023A,2026-06-14T11:43:46.252992,14.14397196,.0010596,71.0548,332.5709,246.3619,113.6392,0,U,23087,999,65849,.12477E-3,.192E-5,0
SL-16 R/B,1994-023B,2026-06-14T11:48:02.763360,14.15023533,.0002947,70.9994,227.5922,188.7470,171.3601,0,U,23088,999,65978,.19486E-3,.33E-5,0
SL-16 R/B,1994-074B,2026-06-14T12:31:21.132768,14.79500311,.0005077,97.6992,192.3538,264.9184,220.5856,0,U,23343,999,70156,.55443E-4,.365E-5,0
SL-16 R/B,1994-077B,2026-06-14T08:45:22.267584,14.15571713,.0002808,70.9807,149.1000,329.8987,30.1974,0,U,23405,999,62991,-.74759E-5,-.63E-6,0
ARIANE 40+ R/B,1995-021B,2026-06-14T11:21:38.682432,14.39831900,.0006262,98.4411,235.5874,202.0103,168.6005,0,U,23561,999,63317,.84167E-4,.221E-5,0
SL-16 R/B,1995-058B,2026-06-14T12:25:41.001024,14.15506873,.0013619,71.0217,336.9630,324.1444,35.8764,0,U,23705,999,58155,.14717E-3,.24E-5,0
