SL-14 R/B               
1 20511U 90018B   26165.37857191  .00000340  00000+0  39562-4 0  9993
2 20511  82.5209 132.7328 0017287 130.3183 229.9545 14.82214463936905
HST                     
1 20580U 90037B   26165.14417512  .00006344  00000+0  19999-3 0  9995
2 20580  28.4715 101.3706 0001912 110.8714 249.2086 15.30716351788104
SL-16 R/B               
1 20625U 90046B   26165.26190405  .00000218  00000+0  13711-3 0  9997
2 20625  70.9995  95.0915 0013580 166.1440 194.0058 14.15025377862057
COSMOS 2084             
1 20663U 90055A   26164.94095426  .00002050  00000+0  15328-3 0  9992
2 20663  62.7910   7.1711 0005510 273.5813  86.4657 15.06104058950810
SL-6 R/B(2)             
1 20666U 90055D   26165.52279674  .00001434  00000+0  11626-3 0  9991
2 20666  62.7823 284.4431 0040188   4.7430 355.4042 15.03995320952753
SL-8 R/B                
1 20775U 90078B   26165.51296068  .00017850  00000+0  50253-3 0  9990
2 20775  82.9001 164.0607 0351582  47.4786 315.5560 14.92215711823727
SL-8 R/B                
1 21088U 91006B   26165.54376556  .00000035  00000+0  19380-4 0  9998
2 21088  82.9424  98.0001 0023577 121.5798  52.1573 13.77505643777404
OKEAN-3                 
1 21397U 91039A   26165.47970769  .00002366  00000+0  16313-3 0  9996
2 21397  82.5158 243.0063 0014312   8.1840 351.9618 15.05312042879597
COSMOS 2151             
1 21422U 91042A   26165.52554030  .00001609  00000+0  12558-3 0  9990
2 21422  82.4960 350.2499 0013832  91.9793 268.3015 15.00431167877712
SL-14 R/B               
1 21423U 91042B   26165.38450957  .00000330  00000+0  38685-4 0  9998
2 21423  82.4926 129.5238 0015483 285.0312  74.9189 14.81900908867398
ERS-1                   
1 21574U 91050A   26165.31500286  .00000330  00000+0  12004-3 0  9994
2 21574  98.7797 185.9427 0030709 275.8819  83.8867 14.39516404829638
ARIANE 40 R/B           
1 21610U 91050F   26165.13663104  .00000260  00000+0  90289-4 0  9998
2 21610  98.1877 213.6723 0004134 127.8482 232.3084 14.42955449832901
INTERCOSMOS 25          
1 21819U 91086A   26165.47066082  .00000594  00000+0  11849-3 0  9991
2 21819  82.6052 251.4538 1484113 268.2589  74.8557 12.12192313508415
SL-8 R/B                
1 21876U 92008B   26165.51801384  .00000140  00000+0  12864-3 0  9991
2 21876  82.9264 195.7722 0033668 222.3439 248.1425 13.75976215722734
SL-8 R/B                
1 21938U 92020B   26165.53070742  .00000053  00000+0  38908-4 0  9993
2 21938  82.9306  81.8304 0029895  29.8317 142.7422 13.75548536714449
USA 81                  
1 21949U 92023A   26165.48059941  .00000148  00000+0  47333-4 0  9997
2 21949  85.0076  75.5695 0002771  87.0583 273.0927 14.32397510108642
COSMOS 2219             
1 22219U 92076A   26165.43185403  .00000206  00000+0  13249-3 0  9997
2 22219  71.0577 175.8320 0016471  48.6580 311.5956 14.14097365732058
SL-16 R/B               
1 22220U 92076B   26165.48927997  .00000055  00000+0  51477-4 0  9994
2 22220  71.0004 344.4647 0014612 302.1791 123.7918 14.16871368735541
COSMOS 2221             
1 22236U 92080A   26165.46449046  .00001282  00000+0  11039-3 0  9990
2 22236  82.5031 186.3732 0013070 222.0334 137.9887 14.96527050795264
SL-16 R/B               
1 22285U 92093B   26165.41566179 -.00000297  00000+0 -12755-3 0  9993
2 22285  71.0199 161.2098 0004120 193.0991 167.0025 14.15462539726842
COSMOS 2228             
1 22286U 92094A   26165.48186329  .00001873  00000+0  15775-3 0  9991
2 22286  82.5174 144.6340 0017145 341.7671  18.2935 14.97577692790548
SL-16 R/B               
1 22566U 93016B   26165.32477946  .00000332  00000+0  19472-3 0  9995
2 22566  71.0083  12.2197 0010411 187.4886 172.6083 14.15312430715849
COSMOS 2242             
1 22626U 93024A   26165.50692081  .00001540  00000+0  13170-3 0  9991
2 22626  82.5180 174.1072 0015603 345.6731  14.4047 14.96896141794874
SL-16 R/B               
1 22803U 93059B   26165.45496054  .00000128  00000+0  87044-4 0  9995
2 22803  70.9887 167.0655 0015137  58.6811 301.5792 14.17247836693246
ARIANE 40 R/B           
1 22830U 93061H   26165.41226966  .00000163  00000+0  75493-4 0  9991
2 22830  98.4819 232.3269 0010642   4.6746 355.4535 14.32906827707953
COSMOS 2278             
1 23087U 94023A   26165.48872978  .00000192  00000+0  12477-3 0  9996
2 23087  71.0548 332.5709 0010596 246.3619 113.6392 14.14397196658490
SL-16 R/B               
1 23088U 94023B   26165.49169865  .00000330  00000+0  19486-3 0  9993
2 23088  70.9994 227.5922 0002947 188.7470 171.3601 14.15023533659788
SL-16 R/B               
1 23343U 94074B   26165.52177237  .00000365  00000+0  55443-4 0  9991
2 23343  97.6992 192.3538 0005077 264.9184 220.5856 14.79500311701561
SL-16 R/B               
1 23405U 94077B   26165.36484106 -.00000063  00000+0 -74759-5 0  9990
2 23405  70.9807 149.1000 0002808 329.8987  30.1974 14.15571713629912
ARIANE 40+ R/B          
1 23561U 95021B   26165.47336438  .00000221  00000+0  84167-4 0  9996
2 23561  98.4411 235.5874 0006262 202.0103 168.6005 14.39831900633178
SL-16 R/B               
1 23705U 95058B   26165.51783566  .00000240  00000+0  14717-3 0  9993
2 23705  71.0217 336.9630 0013619 324.1444  35.8764 14.15506873581556
